HULIANWANG DIGUI-113    
1 66923U 25285J   26066.61708464 -.00000168  00000+0 -94871-4 0  9993
2 66923  50.0098 149.9486 0000118 307.0875  52.9986 13.29330420 12550
HULIANWANG DIGUI-114    
1 66953U 25287A   26066.60525585  .00000064  00000+0  11610-3 0  9990
2 66953  86.4969 316.7145 0001976  80.1201 280.0156 13.24415995 11899
HULIANWANG DIGUI-115    
1 66954U 25287B   26066.59768358  .00000062  00000+0  10924-3 0  9991
2 66954  86.4985 316.7265 0002050  79.0256 281.1108 13.24416115 11896
HULIANWANG DIGUI-116    
1 66955U 25287C   26066.66568460  .00000056  00000+0  95517-4 0  9997
2 66955  86.4925 316.6387 0002051  78.7923 281.3441 13.24416169 11906
HULIANWANG DIGUI-117    
1 66956U 25287D   26066.65817293  .00000074  00000+0  13922-3 0  9997
2 66956  86.4986 316.6943 0001119  19.5983 340.5194 13.24414314 11908
HULIANWANG DIGUI-118    
1 66957U 25287E   26066.65059979  .00000082  00000+0  15710-3 0  9993
2 66957  86.4961 316.6676 0002037  78.7064 281.4299 13.24415623 11905
HULIANWANG DIGUI-119    
1 67059U 25295A   26065.92619158 -.00000072  00000+0  95620-4 0  9995
2 67059  49.9835  33.2787 0001166 148.3017 211.7933 13.46538062 11887
HULIANWANG DIGUI-120    
1 67060U 25295B   26065.91235827 -.00000072  00000+0  94983-4 0  9994
2 67060  50.0312  33.2379 0000690 259.7821 100.2981 13.46886837 11881
HULIANWANG DIGUI-121    
1 67061U 25295C   26065.84542728 -.00000071  00000+0  97629-4 0  9997
2 67061  49.9987  33.5098 0000091  40.7039 319.3847 13.46944278 11879
HULIANWANG DIGUI-122    
1 67062U 25295D   26065.97940347 -.00000074  00000+0  92417-4 0  9994
2 67062  50.0090  32.9110 0000755 331.8680  28.2159 13.46845854 11893
HULIANWANG DIGUI-123    
1 67063U 25295E   26065.89804664 -.00000055  00000+0  12325-3 0  9995
2 67063  50.0059  33.1502 0000645 346.5990  13.4873 13.46994361 11888
HULIANWANG DIGUI-124    
1 67064U 25295F   26065.96570637 -.00000071  00000+0  96709-4 0  9991
2 67064  50.0029  32.7983 0000893  27.3896 332.7031 13.47115276 11893
HULIANWANG DIGUI-125    
1 67065U 25295G   26065.95892951 -.00000070  00000+0  98578-4 0  9992
2 67065  49.9992  32.7597 0001516  20.3092 339.7849 13.47592614 11894
HULIANWANG DIGUI-126    
1 67066U 25295H   26065.95173236 -.00000089  00000+0  67537-4 0  9992
2 67066  50.0020  32.7159 0001182  91.7957 268.3058 13.47239101 11893
HULIANWANG DIGUI-127    
1 67067U 25295J   26065.79310182 -.00000302  00000+0 -27910-3 0  9997
2 67067  50.0031  33.2352 0000938   9.6913 350.3985 13.47465042 11879
HULIANWANG DIGUI-128    
1 67236U 25311A   26066.54499117 -.00000063  00000+0  13029-3 0  9993
2 67236  50.0074 120.0652 0000528  29.0418 331.0484 13.30416330  9823
